TDRS 3                  
1 19548U 88091B   26063.88989582 -.00000306  00000+0  00000+0 0  9995
2 19548  12.6802 341.6894 0044240 353.1115  98.6562  1.00260111124348
FLTSATCOM 8 (USA 46)    
1 20253U 89077A   26063.84861001 -.00000374  00000+0  00000+0 0  9991
2 20253  12.4501 351.7877 0008627 334.5767 267.2023  1.00262800259516
SKYNET 4C               
1 20776U 90079A   26062.94958323  .00000119  00000+0  00000+0 0  9995
2 20776  13.3715 350.5312 0004012 335.4159 210.9700  1.00270617129836
TDRS 5                  
1 21639U 91054B   26063.58537697  .00000078  00000+0  00000+0 0  9990
2 21639  14.0840 354.5521 0010786 277.7780 293.2017  1.00266567126663
TDRS 6                  
1 22314U 93003B   26063.27498017 -.00000302  00000+0  00000+0 0  9996
2 22314  14.1807 357.8358 0005560 200.8977  16.3102  1.00278796121358
UFO 2 (USA 95)          
1 22787U 93056A   26063.01016859  .00000117  00000+0  00000+0 0  9993
2 22787  11.8581   4.1230 0008853 336.0502 213.9016  1.00272701117499
USA 99 (MILSTAR-1 1)    
1 22988U 94009A   26063.16225289 -.00000205  00000+0  00000+0 0  9999
2 22988  17.4623  28.8391 0004272 305.8364 155.6751  1.00273054 31904
UFO 4 (USA 108)         
1 23467U 95003A   26063.60878337 -.00000029  00000+0  00000+0 0  9998
2 23467   9.6715  13.5682 0003578 332.0575 208.1746  1.00272915113904
TDRS 7                  
1 23613U 95035B   26063.62083492 -.00000245  00000+0  00000+0 0  9998
2 23613  13.4204 348.9070 0008188  47.4770  78.5013  1.00276443112203
USA 115 (MILSTAR-1 2)   
1 23712U 95060A   26063.44350074 -.00000027  00000+0  00000+0 0  9997
2 23712  14.0355   4.5249 0004072 339.8975 217.4656  1.00275309 31839
INMARSAT 3-F1           
1 23839U 96020A   26063.20739211  .00000005  00000+0  00000+0 0  9997
2 23839  10.3834  47.5851 0006028 270.7530 288.7702  0.99997269109202
INMARSAT 3-F2           
1 24307U 96053A   26063.02544715 -.00000063  00000+0  00000+0 0  9992
2 24307   9.6190  54.9906 0006066 292.3527  78.7401  0.99978308107877
INMARSAT 3-F3           
1 24674U 96070A   26062.75919498 -.00000250  00000+0  00000+0 0  9999
2 24674  10.0910  50.6474 0006872 270.4488 265.6744  1.00001751106857
AMC-3                   
1 24936U 97050A   26062.99627912 -.00000271  00000+0  00000+0 0  9995
2 24936   7.8887  65.2783 0003483 287.8217  95.3034  1.00271818 51387
USA 134                 
1 25019U 97065A   26063.41503084 -.00000070  00000+0  00000+0 0  9992
2 25019  12.6603  22.4983 0006985 307.0105 229.9566  1.00271226 31902
INMARSAT 3-F5           
1 25153U 98006B   26063.42604031 -.00000298  00000+0  00000+0 0  9994
2 25153   9.4599  54.2851 0005391 296.0321 271.1771  1.00267995102840
ABS-6                   
1 25924U 99053A   26063.68655911 -.00000130  00000+0  00000+0 0  9999
2 25924   0.0457 259.2335 0003088  64.4653 244.9142  1.00272305 96793
