[{"OBJECT_NAME":"TDRS 3","OBJECT_ID":"1988-091B","EPOCH":"2026-03-04T21:21:26.998848","MEAN_MOTION":1.00260111,"ECCENTRICITY":0.004424,"INCLINATION":12.6802,"RA_OF_ASC_NODE":341.6894,"ARG_OF_PERICENTER":353.1115,"MEAN_ANOMALY":98.6562,"EPHEMERIS_TYPE":0,"CLASSIFICATION_TYPE":"U","NORAD_CAT_ID":19548,"ELEMENT_SET_NO":999,"REV_AT_EPOCH":12434,"BSTAR":0,"MEAN_MOTION_DOT":-3.06e-6,"MEAN_MOTION_DDOT":0},{"OBJECT_NAME":"FLTSATCOM 8 (USA 46)","OBJECT_ID":"1989-077A","EPOCH":"2026-03-04T20:21:59.904864","MEAN_MOTION":1.002628,"ECCENTRICITY":0.0008627,"INCLINATION":12.4501,"RA_OF_ASC_NODE":351.7877,"ARG_OF_PERICENTER":334.5767,"MEAN_ANOMALY":267.2023,"EPHEMERIS_TYPE":0,"CLASSIFICATION_TYPE":"U","NORAD_CAT_ID":20253,"ELEMENT_SET_NO":999,"REV_AT_EPOCH":25951,"BSTAR":0,"MEAN_MOTION_DOT":-3.74e-6,"MEAN_MOTION_DDOT":0},{"OBJECT_NAME":"SKYNET 4C","OBJECT_ID":"1990-079A","EPOCH":"2026-03-03T22:47:23.991072","MEAN_MOTION":1.00270617,"ECCENTRICITY":0.0004012,"INCLINATION":13.3715,"RA_OF_ASC_NODE":350.5312,"ARG_OF_PERICENTER":335.4159,"MEAN_ANOMALY":210.97,"EPHEMERIS_TYPE":0,"CLASSIFICATION_TYPE":"U","NORAD_CAT_ID":20776,"ELEMENT_SET_NO":999,"REV_AT_EPOCH":12983,"BSTAR":0,"MEAN_MOTION_DOT":1.19e-6,"MEAN_MOTION_DDOT":0},{"OBJECT_NAME":"TDRS 5","OBJECT_ID":"1991-054B","EPOCH":"2026-03-04T14:02:56.570208","MEAN_MOTION":1.00266567,"ECCENTRICITY":0.0010786,"INCLINATION":14.084,"RA_OF_ASC_NODE":354.5521,"ARG_OF_PERICENTER":277.778,"MEAN_ANOMALY":293.2017,"EPHEMERIS_TYPE":0,"CLASSIFICATION_TYPE":"U","NORAD_CAT_ID":21639,"ELEMENT_SET_NO":999,"REV_AT_EPOCH":12666,"BSTAR":0,"MEAN_MOTION_DOT":7.8e-7,"MEAN_MOTION_DDOT":0},{"OBJECT_NAME":"TDRS 6","OBJECT_ID":"1993-003B","EPOCH":"2026-03-04T06:35:58.286688","MEAN_MOTION":1.00278796,"ECCENTRICITY":0.00055602,"INCLINATION":14.1807,"RA_OF_ASC_NODE":357.8358,"ARG_OF_PERICENTER":200.8977,"MEAN_ANOMALY":16.3102,"EPHEMERIS_TYPE":0,"CLASSIFICATION_TYPE":"U","NORAD_CAT_ID":22314,"ELEMENT_SET_NO":999,"REV_AT_EPOCH":12135,"BSTAR":0,"MEAN_MOTION_DOT":-3.02e-6,"MEAN_MOTION_DDOT":0},{"OBJECT_NAME":"UFO 2 (USA 95)","OBJECT_ID":"1993-056A","EPOCH":"2026-03-04T00:14:38.566176","MEAN_MOTION":1.00272701,"ECCENTRICITY":0.00088532,"INCLINATION":11.8581,"RA_OF_ASC_NODE":4.123,"ARG_OF_PERICENTER":336.0502,"MEAN_ANOMALY":213.9016,"EPHEMERIS_TYPE":0,"CLASSIFICATION_TYPE":"U","NORAD_CAT_ID":22787,"ELEMENT_SET_NO":999,"REV_AT_EPOCH":11749,"BSTAR":0,"MEAN_MOTION_DOT":1.17e-6,"MEAN_MOTION_DDOT":0},{"OBJECT_NAME":"USA 99 (MILSTAR-1 1)","OBJECT_ID":"1994-009A","EPOCH":"2026-03-04T03:53:38.649696","MEAN_MOTION":1.00273054,"ECCENTRICITY":0.00042727,"INCLINATION":17.4623,"RA_OF_ASC_NODE":28.8391,"ARG_OF_PERICENTER":305.8364,"MEAN_ANOMALY":155.6751,"EPHEMERIS_TYPE":0,"CLASSIFICATION_TYPE":"U","NORAD_CAT_ID":22988,"ELEMENT_SET_NO":999,"REV_AT_EPOCH":3190,"BSTAR":0,"MEAN_MOTION_DOT":-2.05e-6,"MEAN_MOTION_DDOT":0},{"OBJECT_NAME":"UFO 4 (USA 108)","OBJECT_ID":"1995-003A","EPOCH":"2026-03-04T14:36:38.883168","MEAN_MOTION":1.00272915,"ECCENTRICITY":0.0003578,"INCLINATION":9.6715,"RA_OF_ASC_NODE":13.5682,"ARG_OF_PERICENTER":332.0575,"MEAN_ANOMALY":208.1746,"EPHEMERIS_TYPE":0,"CLASSIFICATION_TYPE":"U","NORAD_CAT_ID":23467,"ELEMENT_SET_NO":999,"REV_AT_EPOCH":11390,"BSTAR":0,"MEAN_MOTION_DOT":-2.9e-7,"MEAN_MOTION_DDOT":0},{"OBJECT_NAME":"TDRS 7","OBJECT_ID":"1995-035B","EPOCH":"2026-03-04T14:54:00.137088","MEAN_MOTION":1.00276443,"ECCENTRICITY":0.0008188,"INCLINATION":13.4204,"RA_OF_ASC_NODE":348.907,"ARG_OF_PERICENTER":47.477,"MEAN_ANOMALY":78.5013,"EPHEMERIS_TYPE":0,"CLASSIFICATION_TYPE":"U","NORAD_CAT_ID":23613,"ELEMENT_SET_NO":999,"REV_AT_EPOCH":11220,"BSTAR":0,"MEAN_MOTION_DOT":-2.45e-6,"MEAN_MOTION_DDOT":0},{"OBJECT_NAME":"USA 115 (MILSTAR-1 2)","OBJECT_ID":"1995-060A","EPOCH":"2026-03-04T10:38:38.463936","MEAN_MOTION":1.00275309,"ECCENTRICITY":0.0004072,"INCLINATION":14.0355,"RA_OF_ASC_NODE":4.5249,"ARG_OF_PERICENTER":339.8975,"MEAN_ANOMALY":217.4656,"EPHEMERIS_TYPE":0,"CLASSIFICATION_TYPE":"U","NORAD_CAT_ID":23712,"ELEMENT_SET_NO":999,"REV_AT_EPOCH":3183,"BSTAR":0,"MEAN_MOTION_DOT":-2.7e-7,"MEAN_MOTION_DDOT":0},{"OBJECT_NAME":"INMARSAT 3-F1","OBJECT_ID":"1996-020A","EPOCH":"2026-03-04T04:58:38.678304","MEAN_MOTION":0.99997269,"ECCENTRICITY":0.00060287,"INCLINATION":10.3834,"RA_OF_ASC_NODE":47.5851,"ARG_OF_PERICENTER":270.753,"MEAN_ANOMALY":288.7702,"EPHEMERIS_TYPE":0,"CLASSIFICATION_TYPE":"U","NORAD_CAT_ID":23839,"ELEMENT_SET_NO":999,"REV_AT_EPOCH":10920,"BSTAR":0,"MEAN_MOTION_DOT":5.0e-8,"MEAN_MOTION_DDOT":0},{"OBJECT_NAME":"INMARSAT 3-F2","OBJECT_ID":"1996-053A","EPOCH":"2026-03-04T00:36:38.633760","MEAN_MOTION":0.99978308,"ECCENTRICITY":0.00060665,"INCLINATION":9.619,"RA_OF_ASC_NODE":54.9906,"ARG_OF_PERICENTER":292.3527,"MEAN_ANOMALY":78.7401,"EPHEMERIS_TYPE":0,"CLASSIFICATION_TYPE":"U","NORAD_CAT_ID":24307,"ELEMENT_SET_NO":999,"REV_AT_EPOCH":10787,"BSTAR":0,"MEAN_MOTION_DOT":-6.3e-7,"MEAN_MOTION_DDOT":0},{"OBJECT_NAME":"INMARSAT 3-F3","OBJECT_ID":"1996-070A","EPOCH":"2026-03-03T18:13:14.446272","MEAN_MOTION":1.00001751,"ECCENTRICITY":0.00068723,"INCLINATION":10.091,"RA_OF_ASC_NODE":50.6474,"ARG_OF_PERICENTER":270.4488,"MEAN_ANOMALY":265.6744,"EPHEMERIS_TYPE":0,"CLASSIFICATION_TYPE":"U","NORAD_CAT_ID":24674,"ELEMENT_SET_NO":999,"REV_AT_EPOCH":10685,"BSTAR":0,"MEAN_MOTION_DOT":-2.5e-6,"MEAN_MOTION_DDOT":0},{"OBJECT_NAME":"AMC-3","OBJECT_ID":"1997-050A","EPOCH":"2026-03-03T23:54:38.515968","MEAN_MOTION":1.00271818,"ECCENTRICITY":0.00034833,"INCLINATION":7.8887,"RA_OF_ASC_NODE":65.2783,"ARG_OF_PERICENTER":287.8217,"MEAN_ANOMALY":95.3034,"EPHEMERIS_TYPE":0,"CLASSIFICATION_TYPE":"U","NORAD_CAT_ID":24936,"ELEMENT_SET_NO":999,"REV_AT_EPOCH":5138,"BSTAR":0,"MEAN_MOTION_DOT":-2.71e-6,"MEAN_MOTION_DDOT":0},{"OBJECT_NAME":"USA 134","OBJECT_ID":"1997-065A","EPOCH":"2026-03-04T09:57:38.664576","MEAN_MOTION":1.00271226,"ECCENTRICITY":0.0006985,"INCLINATION":12.6603,"RA_OF_ASC_NODE":22.4983,"ARG_OF_PERICENTER":307.0105,"MEAN_ANOMALY":229.9566,"EPHEMERIS_TYPE":0,"CLASSIFICATION_TYPE":"U","NORAD_CAT_ID":25019,"ELEMENT_SET_NO":999,"REV_AT_EPOCH":3190,"BSTAR":0,"MEAN_MOTION_DOT":-7.0e-7,"MEAN_MOTION_DDOT":0},{"OBJECT_NAME":"INMARSAT 3-F5","OBJECT_ID":"1998-006B","EPOCH":"2026-03-04T10:13:29.882784","MEAN_MOTION":1.00267995,"ECCENTRICITY":0.00053912,"INCLINATION":9.4599,"RA_OF_ASC_NODE":54.2851,"ARG_OF_PERICENTER":296.0321,"MEAN_ANOMALY":271.1771,"EPHEMERIS_TYPE":0,"CLASSIFICATION_TYPE":"U","NORAD_CAT_ID":25153,"ELEMENT_SET_NO":999,"REV_AT_EPOCH":10284,"BSTAR":0,"MEAN_MOTION_DOT":-2.98e-6,"MEAN_MOTION_DDOT":0},{"OBJECT_NAME":"ABS-6","OBJECT_ID":"1999-053A","EPOCH":"2026-03-04T16:28:38.707104","MEAN_MOTION":1.00272305,"ECCENTRICITY":0.0003088,"INCLINATION":0.0457,"RA_OF_ASC_NODE":259.2335,"ARG_OF_PERICENTER":64.4653,"MEAN_ANOMALY":244.9142,"EPHEMERIS_TYPE":0,"CLASSIFICATION_TYPE":"U","NORAD_CAT_ID":25924,"ELEMENT_SET_NO":999,"REV_AT_EPOCH":9679,"BSTAR":0,"MEAN_MOTION_DOT":-1.3e-6,"MEAN_MOTION_DDOT":0}]
